[{"OBJECT_NAME":"ONEWEB-0136","OBJECT_ID":"2020-100AA","EPOCH":"2026-03-09T20:30:33.450912","MEAN_MOTION":13.12443913,"ECCENTRICITY":0.00020405,"INCLINATION":87.9001,"RA_OF_ASC_NODE":10.3638,"ARG_OF_PERICENTER":86.1247,"MEAN_ANOMALY":274.0115,"EPHEMERIS_TYPE":0,"CLASSIFICATION_TYPE":"U","NORAD_CAT_ID":47282,"ELEMENT_SET_NO":999,"REV_AT_EPOCH":25163,"BSTAR":-0.00065518532,"MEAN_MOTION_DOT":-2.23e-6,"MEAN_MOTION_DDOT":0},{"OBJECT_NAME":"COSMOS 970 DEB","OBJECT_ID":"1977-121CM","EPOCH":"2026-02-22T21:19:45.581664","MEAN_MOTION":13.32822051,"ECCENTRICITY":0.0101041,"INCLINATION":65.9388,"RA_OF_ASC_NODE":282.7741,"ARG_OF_PERICENTER":316.5081,"MEAN_ANOMALY":61.0116,"EPHEMERIS_TYPE":0,"CLASSIFICATION_TYPE":"U","NORAD_CAT_ID":64976,"ELEMENT_SET_NO":999,"REV_AT_EPOCH":59179,"BSTAR":0.00050603,"MEAN_MOTION_DOT":1.83e-6,"MEAN_MOTION_DDOT":0}]
